GALAXY 25 (G-25)        
1 24812U 97026A   23123.47956584 -.00000249  00000+0  00000+0 0  9994
2 24812   4.4948  80.4076 0012391 341.8830 104.1708  0.99038369 94928
INTELSAT 5 (IS-5)       
1 24916U 97046A   23123.59362201 -.00000048  00000+0  00000+0 0  9998
2 24916   7.9155  58.7402 0002241 334.4415 207.9145  1.00270605 94181
GALAXY 11 (G-11)        
1 26038U 99071A   23123.54117075 -.00000147  00000+0  00000+0 0  9997
2 26038   3.8212  84.0420 0001259  24.0443 214.8158  1.00271563 85646
INTELSAT 9 (IS-9)       
1 26451U 00043A   23123.55991346 -.00000273  00000+0  00000+0 0  9999
2 26451   7.8997  58.9224 0002855 342.3930 331.4556  1.00273420 32702
INTELSAT 1R (IS-1R)     
1 26608U 00072A   23123.58295352 -.00000123  00000+0  00000+0 0  9996
2 26608   5.2594  76.3297 0001426  29.9461 121.9255  1.00272495 29889
INTELSAT 10 (IS-10)     
1 26766U 01019A   23123.51016397  .00000049  00000+0  00000+0 0  9992
2 26766   6.3402  70.5332 0004299 334.6591 177.4030  1.00272106 34186
INTELSAT 901 (IS-901)   
1 26824U 01024A   23123.39077060 -.00000190  00000+0  00000+0 0  9991
2 26824   0.0194  93.3235 0001000 323.8736 276.9885  1.00267279 11546
INTELSAT 902 (IS-902)   
1 26900U 01039A   23123.54929303 -.00000267  00000+0  00000+0 0  9990
2 26900   3.2152  85.3853 0003370 338.3743 305.0783  1.00272807 79254
INTELSAT 904 (IS-904)   
1 27380U 02007A   23123.33874325 -.00000199  00000+0  00000+0 0  9993
2 27380   4.0404  82.4469 0003147 322.1985 268.7964  1.00272631 40325
DIRECTV 5 (TEMPO 1)     
1 27426U 02023A   23123.60035741 -.00000041  00000+0  00000+0 0  9999
2 27426   1.9426  89.3468 0003427 314.6648 283.2514  1.00272028 76685
INTELSAT 905 (IS-905)   
1 27438U 02027A   23123.33970206 -.00000169  00000+0  00000+0 0  9991
2 27438   3.8636  83.1475 0002906 309.2743 286.3643  1.00273085 39926
GALAXY 3C (G-3C)        
1 27445U 02030A   23123.54082209 -.00000138  00000+0  00000+0 0  9999
2 27445   0.7759  91.1552 0000267  32.3466 197.5224  1.00271259 35054
INTELSAT 906 (IS-906)   
1 27513U 02041A   23123.50079110  .00000029  00000+0  00000+0 0  9998
2 27513   2.8860  86.7409 0003668 335.2374  43.5860  1.00272046 75592
GALAXY 12 (G-12)        
1 27715U 03013B   23123.03223271  .00000072  00000+0  00000+0 0  9997
2 27715   4.0727  82.1383 0001893 323.2085  57.9464  1.00273665 40653
GALAXY 23 (G-23)        
1 27854U 03034A   23123.58701096  .00000027  00000+0  00000+0 0  9990
2 27854   0.2467  95.3723 0002759 311.2104 264.9707  1.00271192 72301
GALAXY 13 (HORIZONS-1)  
1 27954U 03044A   23123.58039498  .00000061  00000+0  00000+0 0  9990
2 27954   0.0092 341.5920 0001910  63.6858 257.8874  1.00273540 71710
INTELSAT 10-02          
1 28358U 04022A   23123.12933427  .00000002  00000+0  00000+0 0  9996
2 28358   0.0391 100.2349 0001055 320.6546 205.4756  1.00271892 69102
XM-3 (RHYTHM)           
1 28626U 05008A   23123.36155164 -.00000192  00000+0  00000+0 0  9990
2 28626   0.0358 110.4338 0000136 120.8863  34.7283  1.00270014 31185
DIRECTV 8               
1 28659U 05019A   23123.59047620  .00000015  00000+0  00000+0 0  9993
2 28659   0.0081 259.2423 0002984 155.2653 260.2395  1.00270188 65632
GALAXY 28 (G-28)        
1 28702U 05022A   23123.54195523 -.00000172  00000+0  00000+0 0  9992
2 28702   0.3504  91.3638 0002768 305.2652 290.6449  1.00272254 40549
GALAXY 14 (G-14)        
1 28790U 05030A   23123.49460240  .00000170  00000+0  00000+0 0  9990
2 28790   2.0751  88.6097 0001655 318.8898  24.6114  1.00274555 64864
GALAXY 15 (G-15)        
1 28884U 05041A   23123.54680344  .00000118  00000+0  00000+0 0  9993
2 28884   0.6300  91.7638 0002032 326.4015 206.3494  0.99732749 64157
SPACEWAY 2              
1 28903U 05046B   23123.56528157  .00000118  00000+0  00000+0 0  9995
2 28903   2.6416  84.8642 0000424 262.6149 298.3174  1.00272327 39904
GALAXY 16 (G-16)        
1 29236U 06023A   23123.56099813 -.00000114  00000+0  00000+0 0  9990
2 29236   0.0139 253.3256 0002916 154.1675 276.6763  1.00274227 61830
DIRECTV 9S              
1 29494U 06043A   23122.96607465 -.00000101  00000+0  00000+0 0  9995
2 29494   0.0165 261.2282 0003084 148.0459  57.9193  1.00270163 39940
XM-4 (BLUES)            
1 29520U 06049A   23123.26522419 -.00000243  00000+0  00000+0 0  9997
2 29520   0.0287 304.6067 0000849 177.7336 155.0965  1.00273899 40035
GALAXY 17 (G-17)        
1 31307U 07016B   23122.46631005 -.00000164  00000+0  00000+0 0  9993
2 31307   0.0694  91.2346 0002158   6.0989 199.6702  1.00271897 58358
DIRECTV 10              
1 31862U 07032A   23123.36663448 -.00000090  00000+0  00000+0 0  9991
2 31862   0.0068 317.4755 0000125 293.2302 359.4927  1.00271409 34153
SPACEWAY 3              
1 32018U 07036A   23123.54082209 -.00000137  00000+0  00000+0 0  9991
2 32018   1.0388  89.9072 0000468 327.6232 263.3976  1.00271545 35115
INTELSAT 11 (IS-11)     
1 32253U 07044B   23123.39632514 -.00000255  00000+0  00000+0 0  9995
2 32253   0.6035  92.4598 0003348 321.1695 267.0759  1.00270330 57052
HORIZONS-2              
1 32388U 07063B   23123.54500601 -.00000240  00000+0  00000+0 0  9997
2 32388   0.0379 100.9451 0002496 316.5414 286.0993  1.00271097 56375
DIRECTV 11              
1 32729U 08013A   23123.03815992 -.00000113  00000+0  00000+0 0  9997
2 32729   0.0159  58.8675 0000288 108.4084 327.9632  1.00269017 34153
GALAXY 18 (G-18)        
1 32951U 08024A   23123.58532932  .00000038  00000+0  00000+0 0  9991
2 32951   0.0174 276.5674 0003118 124.4445 267.9293  1.00275532 34413
INTELSAT 25 (IS-25)     
1 33153U 08034A   23123.41000220 -.00000210  00000+0  00000+0 0  9992
2 33153   0.0181 314.9303 0003168  93.9173 288.3094  1.00276571 54259
GALAXY 19 (G-19)        
1 33376U 08045A   23123.56445238 -.00000126  00000+0  00000+0 0  9995
2 33376   0.0207 272.7877 0002986 128.2572 286.3696  1.00272942 53460
FM-5                    
1 35493U 09034A   23123.54256539 -.00000187  00000+0  00000+0 0  9995
2 35493   0.0199 280.5414 0000880 295.6348 114.1921  1.00270763 35207
INTELSAT 14 (IS-14)     
1 36097U 09064A   23123.57166906 -.00000261  00000+0  00000+0 0  9993
2 36097   0.0129 277.4581 0002912 142.2270 322.3165  1.00267087 49258
INTELSAT 15 (IS-15)     
1 36106U 09067A   23123.56727310 -.00000173  00000+0  00000+0 0  9990
2 36106   0.0209 308.3720 0002353  90.3893 111.8225  1.00272208 29796
DIRECTV 12              
1 36131U 09075A   23123.03746259 -.00000091  00000+0  00000+0 0  9991
2 36131   0.0122 220.9388 0000457 119.9273 150.5816  1.00271867 35120
INTELSAT 16 (IS-16)     
1 36397U 10006A   23123.54448302 -.00000231  00000+0  00000+0 0  9991
2 36397   0.0180 305.1037 0001774 116.1340 279.7634  1.00272036 48217
XM-5                    
1 37185U 10053A   23123.59541066 -.00000010  00000+0  00000+0 0  9990
2 37185   0.0222 278.6708 0000843 328.7061  73.0147  1.00270917 46045
INTELSAT 17 (IS-17)     
1 37238U 10065B   23123.57148876  .00000011  00000+0  00000+0 0  9992
2 37238   0.0207 243.5602 0002245 155.5589  93.8340  1.00273982 45487
INTELSAT NEW DAWN       
1 37392U 11016A   23123.49451523  .00000169  00000+0  00000+0 0  9991
2 37392   0.0185 216.4763 0000892 198.4514  17.0519  1.00275000 41845
INTELSAT 18 (IS-18)     
1 37834U 11056A   23123.52382495  .00000066  00000+0  00000+0 0  9997
2 37834   0.0130 307.6385 0001975  93.0769 189.0472  1.00274667 42379
INTELSAT 22 (IS-22)     
1 38098U 12011A   23123.50236007 -.00000046  00000+0  00000+0 0  9996
2 38098   0.0122 289.2026 0002271 115.3880  69.4860  1.00272029 40383
INTELSAT 19 (IS-19)     
1 38356U 12030A   23123.59351519 -.00000043  00000+0  00000+0 0  9996
2 38356   0.0186 278.4430 0003065 127.5330 194.9431  1.00273681 40075
INTELSAT 20 (IS-20)     
1 38740U 12043A   23123.35826817 -.00000012  00000+0  00000+0 0  9995
2 38740   0.0230 150.0282 0001605  36.7926 231.6516  1.00271369 39300
INTELSAT 21 (IS-21)     
1 38749U 12045A   23123.54814394 -.00000271  00000+0  00000+0 0  9991
2 38749   0.0122 287.8018 0002360 121.2097 311.4994  1.00267743 39086
INTELSAT 23 (IS-23)     
1 38867U 12057A   23122.90396809 -.00000273  00000+0  00000+0 0  9992
2 38867   0.0141 241.8816 0001112 125.0412 126.0794  1.00282841 38501
FM-6                    
1 39360U 13058A   23123.59399378 -.00000003  00000+0  00000+0 0  9994
2 39360   0.0203 289.8983 0000827 317.0821  71.9222  1.00270236 34623
INTELSAT 30 (IS-30)     
1 40271U 14062A   23123.48660458 -.00000137  00000+0  00000+0 0  9999
2 40271   0.0173 270.5485 0001649 177.3813 213.3053  1.00268058 31144
DIRECTV 14              
1 40333U 14078B   23123.56099903 -.00000112  00000+0  00000+0 0  9998
2 40333   0.0409  57.7175 0000086 304.8637 321.3516  1.00271890 30816
DIRECTV 15              
1 40663U 15026A   23123.55754205 -.00000089  00000+0  00000+0 0  9993
2 40663   0.0329  77.0921 0000147 168.9974  72.9624  1.00269465 29090
SKY MEXICO-1            
1 40664U 15026B   23123.45948203 -.00000221  00000+0  00000+0 0  9994
2 40664   0.0192 354.2012 0002094  49.4967 264.0544  1.00270692 29019
INTELSAT 34 (IS-34)     
1 40874U 15039A   23123.46093694 -.00000272  00000+0  00000+0 0  9993
2 40874   0.0222 288.0594 0000326  42.9980   0.4940  1.00270567 28184
INTELSAT 31 (IS-31)     
1 41581U 16035A   23123.61229725 -.00000138  00000+0  00000+0 0  9990
2 41581   0.0125 235.1218 0001276 338.8817 132.6215  1.00271730 25249
INTELSAT 36 (IS-36)     
1 41747U 16053A   23123.50166274 -.00000012  00000+0  00000+0 0  9992
2 41747   0.0131 327.0245 0001281  24.6445 118.5532  1.00270928 24516
INTELSAT 33E (IS-33E)   
1 41748U 16053B   23123.49991946  .00000062  00000+0  00000+0 0  9997
2 41748   0.0153 285.5951 0001804 125.3716  50.1330  1.00272666 24815
INTELSAT 32E (IS-32E)   
1 41945U 17007B   23123.59820130 -.00000256  00000+0  00000+0 0  9999
2 41945   0.0089 266.5836 0000191 164.3346 322.4770  1.00266952 22792
INTELSAT 35E (IS-35E)   
1 42818U 17041A   23123.39077060 -.00000225  00000+0  00000+0 0  9997
2 42818   0.0225 269.1192 0002067 126.6921 291.4132  1.00271782 21379
INTELSAT 37E (IS-37E)   
1 42950U 17059A   23123.38521354 -.00000128  00000+0  00000+0 0  9994
2 42950   0.0140 260.8194 0002681 162.0240 278.8618  1.00269638 20624
AZERSPACE 2 (IS-38)     
1 43632U 18074A   23123.49695584  .00000149  00000+0  00000+0 0  9991
2 43632   0.0130 254.1134 0001631 165.4956  25.5374  1.00271154 17006
HORIZONS-3E             
1 43633U 18074B   23122.80477458 -.00000019  00000+0  00000+0 0  9991
2 43633   0.0552  95.9673 0001126 196.0407  27.1581  1.00272212 16906
AT&T T-16               
1 44333U 19034A   23123.55916880 -.00000101  00000+0  00000+0 0  9998
2 44333   0.0189 271.0859 0000635 281.3062 129.2306  1.00267651 14191
INTELSAT 39 (IS-39)     
1 44476U 19049B   23123.50035528  .00000046  00000+0  00000+0 0  9995
2 44476   0.0189 272.8907 0000573 287.0575 263.2721  1.00271155 13705
GALAXY 30 (G-30)        
1 46114U 20056C   23123.58194065  .00000050  00000+0  00000+0 0  9991
2 46114   0.0086 267.5912 0002241 136.9067 261.2138  1.00270120  9853
GALAXY 33 (G-33)        
1 54026U 22128A   23123.57367892  .00000092  00000+0  00000+0 0  9999
2 54026   0.0194 284.5956 0001983 115.8663 254.2813  1.00272066  2318
GALAXY 34 (G-34)        
1 54027U 22128B   23122.74625316  .00000070  00000+0  00000+0 0  9992
2 54027   0.0158 293.6500 0003088 144.0129 282.3828  1.00273013  2472
GALAXY 31 (G-31)        
1 54243U 22153A   23123.58869145  .00000026  00000+0  00000+0 0  9994
2 54243   0.0159 272.8665 0002392  29.5784   9.7258  1.00272984  1715
GALAXY 32 (G-32)        
1 54244U 22153B   23122.89638476 -.00000163  00000+0  00000+0 0  9992
2 54244   0.0359  15.3437 0002922   9.6865  67.2198  1.00272404  1701
GALAXY 35 (G-35)        
1 54741U 22170A   23123.54108359 -.00000160  00000+0  00000+0 0  9995
2 54741   0.0307  41.7385 0001597  14.0028 266.9633  1.00358963  1458
GALAXY 36 (G-36)        
1 54742U 22170B   23123.37507878 -.00000172  00000+0  00000+0 0  9999
2 54742   0.0068 215.0963 0003341 219.5937 192.3615  1.00271984  1337
